[{"OBJECT_NAME":"STARLINK-36032","OBJECT_ID":"2025-270G","EPOCH":"2026-03-09T22:49:57.193824","MEAN_MOTION":15.27608578,"ECCENTRICITY":0.0001142,"INCLINATION":43.0059,"RA_OF_ASC_NODE":54.896,"ARG_OF_PERICENTER":192.8941,"MEAN_ANOMALY":167.1882,"EPHEMERIS_TYPE":0,"CLASSIFICATION_TYPE":"U","NORAD_CAT_ID":66594,"ELEMENT_SET_NO":999,"REV_AT_EPOCH":1755,"BSTAR":0.0014897181,"MEAN_MOTION_DOT":0.00040995,"MEAN_MOTION_DDOT":0},{"OBJECT_NAME":"COSMOS 1238","OBJECT_ID":"1981-003A","EPOCH":"2026-03-09T22:03:18.626112","MEAN_MOTION":14.12425394,"ECCENTRICITY":0.06407052,"INCLINATION":82.9572,"RA_OF_ASC_NODE":297.0051,"ARG_OF_PERICENTER":13.743,"MEAN_ANOMALY":348.0299,"EPHEMERIS_TYPE":0,"CLASSIFICATION_TYPE":"U","NORAD_CAT_ID":12138,"ELEMENT_SET_NO":999,"REV_AT_EPOCH":25589,"BSTAR":0.00028175975,"MEAN_MOTION_DOT":4.214e-5,"MEAN_MOTION_DDOT":0}]
